{
  "norad_id": 68362,
  "name": "RASSVET-3 3",
  "history": [
    {
      "epoch": "2026-03-31T15:46:50.210112Z",
      "apogee_km": 324.5045638274969,
      "perigee_km": 288.19043334049,
      "latitude_deg": -4.0382254105230625e-06,
      "longitude_deg": 33.9706355638,
      "height_km": 296.5626832586621,
      "semi_major_axis_km": 6684.484498583994,
      "eccentricity": 0.0027163,
      "inclination_deg": 82.297,
      "raan_deg": 99.7116,
      "arg_perigee_deg": 44.7138,
      "mean_anomaly_deg": 315.6316,
      "mean_motion_rev_day": 15.88549972
    }
  ]
}